#dP2022 11  8 12  0  0.00000000      96 __u+U ITR00 EXT  IAC
## 2235 216000.00000000   900.00000000 59891 0.5000000000000
+  116   C06C07C08C09C10C11C12C14C16C19C20C21C22C23C24C25C26
+        C27C28C29C30C32C33C34C35C36C37C38C39C40C41C42C43C44
+        C45C46E01E02E03E04E05E07E08E09E10E11E12E13E14E15E18
+        E19E21E24E25E26E27E30E31E33E34E36G01G02G03G04G05G06
+        G07G08G09G10G11G12G13G14G15G16G17G18G19G20G21G22G23
+        G24G25G26G27G29G30G31G32J02J03J04R01R02R03R04R05R07
+        R08R09R11R12R13R14R15R17R18R19R20R21R22R24  0  0  0
++        10 10  9 11 11  9  8  8 10  8  9  8  7  8  9  8  9
++         8 10  7  7  8  8  7  8  9 10 10 11  9 10  9  8  7
++         7  7  8  8  8  8  8  8  8  8 10  6  8  7  8  7  7
++         9  8  8  6  8  8  7  9  7  7  7  7  8  8  7  9  8
++         9  8  8  7  9  7  8  9  7  7  8  7  9  8  9  8  6
++         8  8  7  8  7  7  8  9 10 10 10  9  9  8  7  9 10
++         9 12  7  8  9  7  8  7 10 10  9  8  8  9  0  0  0
%c M  cc GPS ccc cccc cccc cccc cccc ccccc ccccc ccccc ccccc
%c cc cc ccc ccc cccc cccc cccc cccc ccccc ccccc ccccc ccccc
%f  0.0000000  0.000000000  0.00000000000  0.000000000000000
%f  0.0000000  0.000000000  0.00000000000  0.000000000000000
%i    0    0    0    0      0      0      0      0         0
%i    0    0    0    0      0      0      0      0         0
/* IAC                                ULTRA-RAPID PREDICTION
/* S/V CLOCKS ARE ALIGNED TO GNSS TIME                      
/* G:C1WC2W R:C1PC2P E:C1XC5X C:C2IC6I J:C1CC2S             
/* PCV:IGS14_2233 OL/AL:FES2004  NONE     YN ORB:CoN CLK:CoN
*  2022 11 09  0  0  0.00000000
PC06 -16777.814234  36897.837072 -12057.880954      5.385544
PC07  -2940.416892  34622.423489 -23741.909622    240.966861
PC08 -11201.868500  19320.434892  35737.943310    508.896061
PC09 -10463.257698  35537.063155 -20220.487912   -812.223590
PC10   4057.880208  37290.449031 -18472.193140     71.309752
PC11  -9702.708721 -12914.353482 -22686.886186   -303.462771
PC12   4427.633507 -24432.159322 -12711.804718    293.440256
PC14 -17898.405707 -20303.013204   6911.006040    636.775136
PC16 -20566.224098  36255.893958  -7095.530511    119.432852
PC19  19757.273049  12609.262598 -15120.880587   -916.836244
PC20  14040.068790  24093.273900    705.448559    842.839538
PC21    602.218105 -21903.257650 -17282.724610   -780.647422
PC22  14339.688459  -6724.813754 -22984.209348   -804.401972
PC23 -25502.032313   6883.982146  -8982.526085   -879.586537
PC24 -10397.937453 -15000.720347  21090.635268   -833.272373
PC25 -26419.398945  -4470.173312   7745.069387     21.840042
PC26   8793.016238 -15676.455820  21342.607144    -33.195797
PC27 -10662.471382  25352.671176   4736.218017     48.482566
PC28 -18959.387801  16698.827120 -11835.637066     33.796786
PC29  16417.596052   2287.775813  22447.304143     37.949243
PC30   4124.057624  20301.792427  18702.365098      0.899177
PC32   -544.452818  21845.954924  17359.794704   -725.694584
PC33 -19857.755261 -12589.164947  15033.889758   -915.985040
PC34  -5065.462633 -19480.346446 -19328.188898     35.075827
PC35  18690.813709 -16047.846636  13077.665443     79.619015
PC36  26080.257571   5465.794850  -8286.640380   -855.780424
PC37 -10540.347440  15179.279922 -20889.545874   -776.478978
PC38 -19377.053862  19707.061486  31808.774705     36.826048
PC39 -21242.562926  36478.399775  -2282.416464     -0.804728
PC40  -6843.318145  30493.594613 -28207.711965     -7.694745
PC41 -14694.194253   6210.019732  22940.036282   -256.291151
PC42 -13403.785380 -24413.762078  -1834.508356   -627.793663
PC43 -16187.858853  -3207.204034 -22509.809851     23.983995
PC44   9819.790771 -25707.666252  -4550.456035    107.818183
PC45  25346.610629  -7052.134026   9346.895888    -20.022873
PC46  12397.337337  14371.752993 -20472.303439    -11.724223
PE01  22352.674724  -2343.861747  19272.455383   -562.337122
PE02 -22200.778967   2532.460013 -19401.344436      1.436821
PE03 -15310.172824  12746.366570  21880.080719   -618.075775
PE04   5751.682233 -27760.079142  -8509.650697  -1154.456383
PE05 -16087.083862 -10109.709918  22691.430598   -126.513620
PE07   7505.728147  26710.705121 -10309.249966   -719.905520
PE08  -5617.490759  27776.501664   8528.647651   -629.193097
PE09  -7374.317500 -26812.655972  10151.457959   -722.416336
PE10   5310.966961 -19443.039342 -21686.366585   -489.479572
PE11  -6068.429394 -15053.488328 -24758.990608   1415.296071
PE12  14861.722529 -20424.028665 -15425.814237   -266.760090
PE13   5130.236867  15461.988256  24720.195615    430.630113
PE14  15102.006091 -15237.478973  15569.526136     51.229680
PE15 -15079.396477  20406.190614  15249.096421    708.685647
PE18 -19699.516781   3710.637021 -22702.215958   -765.329041
PE19  15919.142633  -9812.688399 -22944.921717  -4047.009192
PE21  26794.797802  11798.980095   4389.975569   -493.530157
PE24 -15320.150914 -20517.802681  14818.169832   -936.855922
PE25 -26738.073175 -12010.348751  -4079.723186   -592.223201
PE26  22705.602476    960.214887  18979.155964  -1823.025798
PE27  16284.976273  20324.066338 -14075.056773   -435.034881
PE30  -4618.963300  16463.026784 -24168.598143   -983.073882
PE31   3733.770307 -16801.770319  24092.138718   -507.706353
PE33  26271.350726 -13266.261841   3179.428364   -455.417253
PE34 -26202.587950  13419.246220  -2999.341742    -13.644010
PE36 -22122.816528  -1506.743360 -19601.075322   -458.037624
PG01   4047.881654 -16715.567177 -20446.841348    254.675745
PG02   -544.784891  17116.617893  21003.799488   -638.710870
PG03  -4818.057518 -18484.194532 -18625.675848   -371.542342
PG04    513.985676 -26296.977992   3276.423384    -89.753053
PG05  -8306.988247  12592.672020  21685.759939   -103.567343
PG06 -24496.125132   5151.321331  -8924.820900    513.427510
PG07 -12353.947761 -10944.768875  21312.538817    289.686436
PG08   6451.601457 -24420.743443   7534.250517    -92.880655
PG09  -8319.620684 -21368.960269  13284.529784   -271.488628
PG10  23598.899073  10732.152106  -6340.322685    -11.076476
PG11 -23473.653061  12046.115771   2877.851316    -36.851197
PG12   2809.725877  18764.019351 -18898.603198   -301.994347
PG13 -12983.406566  19141.323995  12713.240102    421.160265
PG14 -22956.804637 -12651.086496  -4647.936632    -85.506031
PG15  -3445.086639  25191.073619   6702.690756    -14.015406
PG16  14269.387370  -7077.330745  21049.417833   -526.877443
PG17 -12939.552693  -9258.766425 -20811.877598    676.224106
PG18  13627.533728   9333.347819  20831.139258    -14.989095
PG19 -15403.030218   2724.894777 -21661.751114    234.822926
PG20 -19532.865034   4701.940888  17272.733249    471.679588
PG21  12056.989235 -18327.648993 -13804.425939    156.453866
PG22  15320.582539  -6384.586102 -20275.204583    360.986801
PG23  20553.268838  16427.194895   4125.731576     -1.102225
PG24  -6908.574251  18994.272471 -17350.074959     66.938846
PG25  13950.440141  19484.464108 -12042.516231    390.721744
PG26  21904.878647     -3.753836  15150.130777    235.209927
PG27  12489.580708 -16172.267491  16525.127895    182.162149
PG29   4985.780578  22910.694265  12356.111965   -565.828346
PG30 -21658.477381  -2409.286681  15444.747423   -536.860002
PG31  25130.530328  -5533.070372  -7639.401811   -199.565289
PG32  14644.989034   5604.605943 -21309.775704   -289.942082
PJ02 -24840.558485  17058.928060 -24857.515125     -0.095677
PJ03 -27275.106777  32015.782534   1131.347994     -4.287445
PJ04 -26553.711120  26191.853965  25704.558642    112.731769
PR01  13664.467541  17187.040804 -12984.467897     17.558862
PR02  11169.326424   -801.765424 -22887.698458    -23.266895
PR03   2622.039087 -17578.498056 -18230.898323     66.947655
PR04  -7155.883058 -24210.015613  -3566.793399    164.208214
PR05 -12953.960349 -17651.088505  13066.267655    102.596747
PR07  -2181.724645  18205.117658  17792.204130     43.982876
PR08   7278.886204  24218.986969   3526.942016    -67.990224
PR09 -24065.644462    854.836992  -8507.768962     86.538151
PR11   6386.627939  11425.933217 -21880.013164     21.579989
PR12  22436.941467   7988.800517  -9135.150079     22.691744
PR13  24508.134424    199.570554   7062.932929    -28.665909
PR14  11612.888313  -8527.134013  21058.072232     24.139871
PR15  -7356.701403 -11628.211547  21498.660028     92.798093
PR17  15294.316436 -20271.739538  -2646.820029    576.409169
PR18   4795.042896 -17851.856934 -17536.129644     51.070078
PR19  -7116.761105  -7550.668374 -23297.132238   -210.281319
PR20 -18025.705225  10174.303305 -14917.357652    -81.804104
PR21 -14637.562454  20415.943359   4332.240470   -348.184763
PR22  -4632.792144  17572.005109  17934.578361     15.570005
PR24  18070.078843 -10980.351849  14306.256508    125.337693
EOF
